{
  "type": "FeatureCollection",
  "features": [
    {
      "type": "Feature",
      "properties": {
        "norad_id": 66469,
        "name": "STARLINK-35451",
        "group": "last-30-days",
        "lat": -35.53114269903102,
        "lon": 57.65080911988808,
        "alt_km": 417.5329746142843,
        "timestamp": "2025-12-06T11:28:09.785326+00:00",
        "meta_object_name": "STARLINK-35451",
        "meta_object_id": "2025-262P",
        "meta_epoch": "2025-12-05T22:00:03.000096",
        "meta_mean_motion": 15.50578099,
        "meta_eccentricity": 0.00012542,
        "meta_inclination": 43.0003,
        "meta_ra_of_asc_node": 110.9596,
        "meta_arg_of_pericenter": 274.7208,
        "meta_mean_anomaly": 130.5715,
        "meta_ephemeris_type": 0,
        "meta_classification_type": "U",
        "meta_norad_cat_id": 66469,
        "meta_element_set_no": 999,
        "meta_rev_at_epoch": 454,
        "meta_bstar": -0.0013392169,
        "meta_mean_motion_dot": -0.00078124,
        "meta_mean_motion_ddot": 0,
        "tle_line1": "1 66469U 25262P   25339.91670139 -.00078124  00000+0 -13392-2 0  9999",
        "tle_line2": "2 66469  43.0003 110.9596 0001254 274.7208 130.5715 15.50578099  4540"
      },
      "geometry": {
        "type": "Point",
        "coordinates": [
          57.65080911988808,
          -35.53114269903102
        ]
      }
    },
    {
      "type": "Feature",
      "properties": {
        "norad_id": 66470,
        "name": "STARLINK-35655",
        "group": "last-30-days",
        "lat": -37.11136004098175,
        "lon": 53.40217854558101,
        "alt_km": 417.2490028383836,
        "timestamp": "2025-12-06T11:28:09.785336+00:00",
        "meta_object_name": "STARLINK-35655",
        "meta_object_id": "2025-262Q",
        "meta_epoch": "2025-12-05T22:00:03.000096",
        "meta_mean_motion": 15.50597262,
        "meta_eccentricity": 0.00015948,
        "meta_inclination": 43.0005,
        "meta_ra_of_asc_node": 110.97,
        "meta_arg_of_pericenter": 276.2389,
        "meta_mean_anomaly": 125.2107,
        "meta_ephemeris_type": 0,
        "meta_classification_type": "U",
        "meta_norad_cat_id": 66470,
        "meta_element_set_no": 999,
        "meta_rev_at_epoch": 454,
        "meta_bstar": -0.0010141201,
        "meta_mean_motion_dot": -0.00059425,
        "meta_mean_motion_ddot": 0,
        "tle_line1": "1 66470U 25262Q   25339.91670139 -.00059425  00000+0 -10141-2 0  9993",
        "tle_line2": "2 66470  43.0005 110.9700 0001594 276.2389 125.2107 15.50597262  4544"
      },
      "geometry": {
        "type": "Point",
        "coordinates": [
          53.40217854558101,
          -37.11136004098175
        ]
      }
    },
    {
      "type": "Feature",
      "properties": {
        "norad_id": 66471,
        "name": "STARLINK-35569",
        "group": "last-30-days",
        "lat": -36.332061826395574,
        "lon": 55.56979732335577,
        "alt_km": 417.4974599802763,
        "timestamp": "2025-12-06T11:28:09.785346+00:00",
        "meta_object_name": "STARLINK-35569",
        "meta_object_id": "2025-262R",
        "meta_epoch": "2025-12-05T22:00:03.000096",
        "meta_mean_motion": 15.50630819,
        "meta_eccentricity": 0.00012355,
        "meta_inclination": 43.0003,
        "meta_ra_of_asc_node": 110.9651,
        "meta_arg_of_pericenter": 284.1435,
        "meta_mean_anomaly": 119.2134,
        "meta_ephemeris_type": 0,
        "meta_classification_type": "U",
        "meta_norad_cat_id": 66471,
        "meta_element_set_no": 999,
        "meta_rev_at_epoch": 454,
        "meta_bstar": -0.0019478206,
        "meta_mean_motion_dot": -0.00113181,
        "meta_mean_motion_ddot": 0,
        "tle_line1": "1 66471U 25262R   25339.91670139 -.00113181  00000+0 -19478-2 0  9996",
        "tle_line2": "2 66471  43.0003 110.9651 0001235 284.1435 119.2134 15.50630819  4549"
      },
      "geometry": {
        "type": "Point",
        "coordinates": [
          55.56979732335577,
          -36.332061826395574
        ]
      }
    },
    {
      "type": "Feature",
      "properties": {
        "norad_id": 66472,
        "name": "STARLINK-35567",
        "group": "last-30-days",
        "lat": -34.654888795494045,
        "lon": 59.78516964085901,
        "alt_km": 417.4221022714146,
        "timestamp": "2025-12-06T11:28:09.785356+00:00",
        "meta_object_name": "STARLINK-35567",
        "meta_object_id": "2025-262S",
        "meta_epoch": "2025-12-05T22:00:03.000096",
        "meta_mean_motion": 15.5062664,
        "meta_eccentricity": 0.00012212,
        "meta_inclination": 43.0002,
        "meta_ra_of_asc_node": 110.9551,
        "meta_arg_of_pericenter": 284.1673,
        "meta_mean_anomaly": 123.0215,
        "meta_ephemeris_type": 0,
        "meta_classification_type": "U",
        "meta_norad_cat_id": 66472,
        "meta_element_set_no": 999,
        "meta_rev_at_epoch": 454,
        "meta_bstar": -0.0018352349,
        "meta_mean_motion_dot": -0.0010673,
        "meta_mean_motion_ddot": 0,
        "tle_line1": "1 66472U 25262S   25339.91670139 -.00106730  00000+0 -18352-2 0  9999",
        "tle_line2": "2 66472  43.0002 110.9551 0001221 284.1673 123.0215 15.50626640  4547"
      },
      "geometry": {
        "type": "Point",
        "coordinates": [
          59.78516964085901,
          -34.654888795494045
        ]
      }
    },
    {
      "type": "Feature",
      "properties": {
        "norad_id": 66473,
        "name": "STARLINK-35568",
        "group": "last-30-days",
        "lat": -33.75809512398163,
        "lon": 61.83899742441991,
        "alt_km": 416.96108123822614,
        "timestamp": "2025-12-06T11:28:09.785366+00:00",
        "meta_object_name": "STARLINK-35568",
        "meta_object_id": "2025-262T",
        "meta_epoch": "2025-12-05T22:00:03.000096",
        "meta_mean_motion": 15.50608341,
        "meta_eccentricity": 0.00017861,
        "meta_inclination": 43.0005,
        "meta_ra_of_asc_node": 110.9504,
        "meta_arg_of_pericenter": 284.1491,
        "meta_mean_anomaly": 124.9634,
        "meta_ephemeris_type": 0,
        "meta_classification_type": "U",
        "meta_norad_cat_id": 66473,
        "meta_element_set_no": 999,
        "meta_rev_at_epoch": 454,
        "meta_bstar": -0.0012708869,
        "meta_mean_motion_dot": -0.00074275,
        "meta_mean_motion_ddot": 0,
        "tle_line1": "1 66473U 25262T   25339.91670139 -.00074275  00000+0 -12709-2 0  9998",
        "tle_line2": "2 66473  43.0005 110.9504 0001786 284.1491 124.9634 15.50608341  4546"
      },
      "geometry": {
        "type": "Point",
        "coordinates": [
          61.83899742441991,
          -33.75809512398163
        ]
      }
    },
    {
      "type": "Feature",
      "properties": {
        "norad_id": 66474,
        "name": "STARLINK-35620",
        "group": "last-30-days",
        "lat": -32.863999552402916,
        "lon": 63.77139448986881,
        "alt_km": 417.17078981513805,
        "timestamp": "2025-12-06T11:28:09.785378+00:00",
        "meta_object_name": "STARLINK-35620",
        "meta_object_id": "2025-262U",
        "meta_epoch": "2025-12-05T22:00:03.000096",
        "meta_mean_motion": 15.50517383,
        "meta_eccentricity": 0.00014616,
        "meta_inclination": 43.0003,
        "meta_ra_of_asc_node": 110.9447,
        "meta_arg_of_pericenter": 275.645,
        "meta_mean_anomaly": 135.4017,
        "meta_ephemeris_type": 0,
        "meta_classification_type": "U",
        "meta_norad_cat_id": 66474,
        "meta_element_set_no": 999,
        "meta_rev_at_epoch": 454,
        "meta_bstar": 0.00023959904,
        "meta_mean_motion_dot": 0.00013708,
        "meta_mean_motion_ddot": 0,
        "tle_line1": "1 66474U 25262U   25339.91670139  .00013708  00000+0  23960-3 0  9993",
        "tle_line2": "2 66474  43.0003 110.9447 0001461 275.6450 135.4017 15.50517383  4548"
      },
      "geometry": {
        "type": "Point",
        "coordinates": [
          63.77139448986881,
          -32.863999552402916
        ]
      }
    },
    {
      "type": "Feature",
      "properties": {
        "norad_id": 66475,
        "name": "STARLINK-35538",
        "group": "last-30-days",
        "lat": -31.873763389231087,
        "lon": 65.80007864560532,
        "alt_km": 417.20815035326814,
        "timestamp": "2025-12-06T11:28:09.785388+00:00",
        "meta_object_name": "STARLINK-35538",
        "meta_object_id": "2025-262V",
        "meta_epoch": "2025-12-05T22:00:03.000096",
        "meta_mean_motion": 15.50635753,
        "meta_eccentricity": 0.00017101,
        "meta_inclination": 43.0003,
        "meta_ra_of_asc_node": 110.9407,
        "meta_arg_of_pericenter": 271.708,
        "meta_mean_anomaly": 141.2663,
        "meta_ephemeris_type": 0,
        "meta_classification_type": "U",
        "meta_norad_cat_id": 66475,
        "meta_element_set_no": 999,
        "meta_rev_at_epoch": 454,
        "meta_bstar": -0.0025582273,
        "meta_mean_motion_dot": -0.00147924,
        "meta_mean_motion_ddot": 0,
        "tle_line1": "1 66475U 25262V   25339.91670139 -.00147924  00000+0 -25582-2 0  9995",
        "tle_line2": "2 66475  43.0003 110.9407 0001710 271.7080 141.2663 15.50635753  4542"
      },
      "geometry": {
        "type": "Point",
        "coordinates": [
          65.80007864560532,
          -31.873763389231087
        ]
      }
    }
  ]
}